STARLINK-37963          
1 69709U 26147F   26196.10209529  .00127597  00000+0  65645-3 0  9992
2 69709  97.2827 232.4920 0000951  94.3369 265.8008 15.80840988  3844
STARLINK-37969          
1 69710U 26147G   26196.54445181  .00197932  00000+0  10067-2 0  9995
2 69710  97.2834 232.9633 0000982 164.0023 196.1276 15.80906167  3919
STARLINK-37956          
1 69711U 26147H   26196.54369905  .00236899  00000+0  11984-2 0  9990
2 69711  97.2832 232.9642 0002009 175.3907 184.7381 15.80922816  3915
STARLINK-38043          
1 69712U 26147J   26196.54293741  .00351569  00000+0  17525-2 0  9994
2 69712  97.2827 232.9644 0001230 127.9032 232.2348 15.80949742  3918
STARLINK-38020          
1 69713U 26147K   26196.54219866  .00231859  00000+0  11737-2 0  9999
2 69713  97.2830 232.9660 0000428  25.1141 335.0148 15.80921012  3919
STARLINK-38059          
1 69714U 26147L   26196.54144588  .00244507  00000+0  12356-2 0  9990
2 69714  97.2831 232.9673 0000997 180.9957 179.1310 15.80924946  3918
STARLINK-38061          
1 69715U 26147M   26196.54069443  .00203296  00000+0  10332-2 0  9999
2 69715  97.2838 232.9689 0000209 284.7967  75.3278 15.80907156  3917
STARLINK-38060          
1 69716U 26147N   26196.53994573  .00208823  00000+0  10609-2 0  9998
2 69716  97.2833 232.9691 0000662  84.4932 275.6412 15.80900709  3918
STARLINK-38040          
1 69717U 26147P   26196.09608639  .00132787  00000+0  68266-3 0  9993
2 69717  97.2819 232.5013 0001331  29.1016 331.0326 15.80842194  3846
STARLINK-37989          
1 69718U 26147Q   26196.91668981 -.00024722  00000+0 -12874-3 0  9996
2 69718  97.2829 233.3729 0001308  83.1568 268.1402 15.80807984  3941
STARLINK-38039          
1 69719U 26147R   26196.53769252  .00204531  00000+0  10387-2 0  9990
2 69719  97.2824 232.9708 0000938  52.7992 307.3361 15.80921880  3919
STARLINK-38003          
1 69720U 26147S   26196.53694178  .00233178  00000+0  11810-2 0  9997
2 69720  97.2826 232.9718 0001535 111.1882 248.9550 15.80904861  3916
STARLINK-38014          
1 69721U 26147T   26196.53618794  .00197527  00000+0  10050-2 0  9990
2 69721  97.2849 232.9745 0000654  59.6210 300.5122 15.80899195  3917
STARLINK-37915          
1 69722U 26147U   26196.09233039  .00112684  00000+0  58086-3 0  9990
2 69722  97.2827 232.5049 0002143  24.3571 335.7799 15.80837015  3846
STARLINK-38007          
1 69723U 26147V   26196.91668981 -.00030831  00000+0 -16081-3 0  9994
2 69723  97.2829 233.3734 0001326  90.3862 264.3986 15.80812994  3942
STARLINK-38008          
1 69724U 26147W   26196.09082521  .00187193  00000+0  95518-3 0  9998
2 69724  97.2834 232.5081 0000974  56.3109 303.8252 15.80862295  3842
STARLINK-38021          
1 69725U 26147X   26196.09007783  .00131813  00000+0  67756-3 0  9997
2 69725  97.2820 232.5094 0003573   8.1427 351.9899 15.80841708  3845
STARLINK-38015          
1 69726U 26147Y   26196.08932726  .00130833  00000+0  67271-3 0  9994
2 69726  97.2832 232.5109 0003137   6.2476 353.8831 15.80840269  3843
STARLINK-38010          
1 69727U 26147Z   26196.81054396  .00109126  00000+0  72206-3 0  9999
2 69727  97.2830 233.2121 0001048  90.0924 270.0462 15.75226372  3951
SXM-11                  
1 69728U 26148A   26196.88951483  .00000000  00000+0  00000+0 0  9991
2 69728   0.1102 265.2443 0001926 178.3390  49.8648  1.00269558   334
HAIYANG-2E              
1 69737U 26149A   26194.63575019 -.00000091  00000+0 -45287-4 0  9993
2 69737  99.3454 201.5813 0001579  93.5996 266.5337 13.79314717  1614
CZ-4B R/B               
1 69738U 26149B   26194.65226973  .00000049  00000+0  33597-4 0  9990
2 69738  99.3217 202.5607 0198196 334.5310  24.6204 14.30067210  1914
STARLINK-38033          
1 69739U 26150A   26196.52767584  .00176481  00000+0  90066-3 0  9996
2 69739  97.2836  34.9083 0001217  55.7735 304.3649 15.80886888  3373
STARLINK-38076          
1 69740U 26150B   26196.80164899  .00182277  00000+0  11950-2 0  9993
2 69740  97.2830  35.1467 0000945  90.9907 269.1466 15.75230244  3410
STARLINK-38074          
1 69741U 26150C   26196.71500228  .00502919  00000+0  24782-2 0  9990
2 69741  97.2831  35.1122 0001034 101.3187 258.8198 15.80812401  3400
STARLINK-38041          
1 69742U 26150D   26195.51157686  .00197630  00000+0  10043-2 0  9999
2 69742  97.2822  33.8415 0001394 105.4157 254.7266 15.80925154  3212
STARLINK-38087          
1 69743U 26150E   26196.91668981  .00098024  00000+0  50813-3 0  9997
2 69743  97.2839  35.3285 0001412  86.2009 349.6102 15.80756786  3414
STARLINK-38078          
1 69744U 26150F   26196.52283307  .00225137  00000+0  11439-2 0  9997
2 69744  97.2824  34.9142 0001074   7.0004 353.1279 15.80857568  3376
STARLINK-38047          
1 69745U 26150G   26195.50921554  .00139688  00000+0  71675-3 0  9992
2 69745  97.2820  33.8437 0003666 125.3440 234.8171 15.80859566  3214
STARLINK-38046          
1 69746U 26150H   26196.52010782  .00172678  00000+0  88245-3 0  9995
2 69746  97.2828  34.9181 0001068  90.3257 269.8134 15.80867235  3378
