OBJECT_NAME,OBJECT_ID,EPOCH,MEAN_MOTION,ECCENTRICITY,INCLINATION,RA_OF_ASC_NODE,ARG_OF_PERICENTER,MEAN_ANOMALY,EPHEMERIS_TYPE,CLASSIFICATION_TYPE,NORAD_CAT_ID,ELEMENT_SET_NO,REV_AT_EPOCH,BSTAR,MEAN_MOTION_DOT,MEAN_MOTION_DDOT
STARLINK-37963,2026-147F,2026-07-15T02:27:01.033056,15.80840988,.00009512,97.2827,232.4920,94.3369,265.8008,0,U,69709,999,384,.65644726E-3,.127597E-2,0
STARLINK-37969,2026-147G,2026-07-15T13:04:00.636384,15.80906167,.00009822,97.2834,232.9633,164.0023,196.1276,0,U,69710,999,391,.10066663E-2,.197932E-2,0
STARLINK-37956,2026-147H,2026-07-15T13:02:55.597920,15.80922816,.0002009,97.2832,232.9642,175.3907,184.7381,0,U,69711,999,391,.11984E-2,.236899E-2,0
STARLINK-38043,2026-147J,2026-07-15T13:01:49.792224,15.80949742,.000123,97.2827,232.9644,127.9032,232.2348,0,U,69712,999,391,.17525E-2,.351569E-2,0
STARLINK-38020,2026-147K,2026-07-15T13:00:45.964224,15.80921012,.0000428,97.2830,232.9660,25.1141,335.0148,0,U,69713,999,391,.11737E-2,.231859E-2,0
STARLINK-38059,2026-147L,2026-07-15T12:59:40.924032,15.80924946,.0000997,97.2831,232.9673,180.9957,179.1310,0,U,69714,999,391,.12356E-2,.244507E-2,0
STARLINK-38061,2026-147M,2026-07-15T12:58:35.998752,15.80907156,.0000209,97.2838,232.9689,284.7967,75.3278,0,U,69715,999,391,.10332E-2,.203296E-2,0
STARLINK-38060,2026-147N,2026-07-15T12:57:31.311072,15.80900709,.0000662,97.2833,232.9691,84.4932,275.6412,0,U,69716,999,391,.10609E-2,.208823E-2,0
STARLINK-38040,2026-147P,2026-07-15T02:18:21.864096,15.80842194,.00013312,97.2819,232.5013,29.1016,331.0326,0,U,69717,999,384,.68266375E-3,.132787E-2,0
STARLINK-37989,2026-147Q,2026-07-15T22:00:01.999584,15.80807984,.00013086,97.2829,233.3729,83.1568,268.1402,0,U,69718,999,394,-.12873653E-3,-.24722E-3,0
STARLINK-38039,2026-147R,2026-07-15T12:54:16.633728,15.80921880,.0000938,97.2824,232.9708,52.7992,307.3361,0,U,69719,999,391,.10387E-2,.204531E-2,0
STARLINK-38003,2026-147S,2026-07-15T12:53:11.769792,15.80904861,.0001535,97.2826,232.9718,111.1882,248.9550,0,U,69720,999,391,.1181E-2,.233178E-2,0
STARLINK-38014,2026-147T,2026-07-15T12:52:06.638016,15.80899195,.0000654,97.2849,232.9745,59.6210,300.5122,0,U,69721,999,391,.1005E-2,.197527E-2,0
STARLINK-37915,2026-147U,2026-07-15T02:12:57.345696,15.80837015,.00021438,97.2827,232.5049,24.3571,335.7799,0,U,69722,999,384,.58086347E-3,.112684E-2,0
STARLINK-38007,2026-147V,2026-07-15T22:00:01.999584,15.80812994,.00013265,97.2829,233.3734,90.3862,264.3986,0,U,69723,999,394,-.16080712E-3,-.30831E-3,0
STARLINK-38008,2026-147W,2026-07-15T02:10:47.298144,15.80862295,.0000974,97.2834,232.5081,56.3109,303.8252,0,U,69724,999,384,.95517982E-3,.187193E-2,0
STARLINK-38021,2026-147X,2026-07-15T02:09:42.724512,15.80841708,.00035731,97.2820,232.5094,8.1427,351.9899,0,U,69725,999,384,.67756298E-3,.131813E-2,0
STARLINK-38015,2026-147Y,2026-07-15T02:08:37.875264,15.80840269,.00031378,97.2832,232.5109,6.2476,353.8831,0,U,69726,999,384,.67270524E-3,.130833E-2,0
STARLINK-38010,2026-147Z,2026-07-15T19:27:10.998144,15.75226372,.00010485,97.2830,233.2121,90.0924,270.0462,0,U,69727,999,395,.72205933E-3,.109126E-2,0
SXM-11,2026-148A,2026-07-15T21:20:54.081312,1.00269558,.00019268,0.1102,265.2443,178.3390,49.8648,0,U,69728,999,33,0,0,0
HAIYANG-2E,2026-149A,2026-07-13T15:15:28.816416,13.79314717,.0001579,99.3454,201.5813,93.5996,266.5337,0,U,69737,999,161,-.45287E-4,-.91E-6,0
CZ-4B R/B,2026-149B,2026-07-13T15:39:16.104672,14.30067210,.01981969,99.3217,202.5607,334.5310,24.6204,0,U,69738,999,191,.33596551E-4,.49E-6,0
STARLINK-38033,2026-150A,2026-07-15T12:39:51.192576,15.80886888,.00012172,97.2836,34.9083,55.7735,304.3649,0,U,69739,999,337,.90066352E-3,.176481E-2,0
STARLINK-38076,2026-150B,2026-07-15T19:14:22.472736,15.75230244,.00009456,97.2830,35.1467,90.9907,269.1466,0,U,69740,999,341,.11949591E-2,.182277E-2,0
STARLINK-38074,2026-150C,2026-07-15T17:09:36.196992,15.80812401,.00010343,97.2831,35.1122,101.3187,258.8198,0,U,69741,999,340,.2478176E-2,.502919E-2,0
STARLINK-38041,2026-150D,2026-07-14T12:16:40.240704,15.80925154,.00013947,97.2822,33.8415,105.4157,254.7266,0,U,69742,999,321,.10042928E-2,.19763E-2,0
STARLINK-38087,2026-150E,2026-07-15T22:00:01.999584,15.80756786,.00014126,97.2839,35.3285,86.2009,349.6102,0,U,69743,999,341,.50812782E-3,.98024E-3,0
STARLINK-38078,2026-150F,2026-07-15T12:32:52.777248,15.80857568,.00010743,97.2824,34.9142,7.0004,353.1279,0,U,69744,999,337,.11438662E-2,.225137E-2,0
STARLINK-38047,2026-150G,2026-07-14T12:13:16.222656,15.80859566,.00036662,97.2820,33.8437,125.3440,234.8171,0,U,69745,999,321,.71675095E-3,.139688E-2,0
STARLINK-38046,2026-150H,2026-07-15T12:28:57.315648,15.80867235,.00010688,97.2828,34.9181,90.3257,269.8134,0,U,69746,999,337,.88245202E-3,.172678E-2,0
